ONEWEB-0158             
1 48054U 21025N   25169.07559232  .00000288  00000+0  75307-3 0  9999
2 48054  87.8966  32.5604 0001685  79.1280 281.0038 13.13469177205836
ONEWEB-0157             
1 48055U 21025P   25168.87244362 -.00000186  00000+0 -54305-3 0  9996
2 48055  87.8966  32.6118 0002187  76.1088 284.0284 13.13468978205743
ONEWEB-0162             
1 48056U 21025Q   25168.84860789  .00000325  00000+0  85387-3 0  9998
2 48056  87.8967  32.6148 0001837  81.6533 278.4804 13.13468231205696
ONEWEB-0155             
1 48057U 21025R   25168.85551984  .00000150  00000+0  37662-3 0  9993
2 48057  87.8965  32.6217 0002003  85.1478 274.9880 13.13469428205868
ONEWEB-0149             
1 48058U 21025S   25169.33458682 -.00000254  00000+0 -73122-3 0  9997
2 48058  87.8964  32.5207 0001694  76.8107 283.3211 13.13469399205732
ONEWEB-0148             
1 48059U 21025T   25168.91646377  .00000299  00000+0  78477-3 0  9996
2 48059  87.8966  32.6268 0001838  62.6975 297.4341 13.13469508205797
ONEWEB-0160             
1 48060U 21025U   25169.08574209  .00000431  00000+0  11458-2 0  9994
2 48060  87.8968  32.5904 0001283 109.1284 250.9984 13.13471626205769
ONEWEB-0163             
1 48061U 21025V   25168.68964390  .00000334  00000+0  87937-3 0  9992
2 48061  87.8964  32.6508 0002059  79.8691 280.2670 13.13470145205835
